[{"OBJECT_NAME":"STARLINK-2338","OBJECT_ID":"2021-018G","EPOCH":"2026-03-09T17:13:02.131392","MEAN_MOTION":15.06405037,"ECCENTRICITY":0.00014277,"INCLINATION":53.0568,"RA_OF_ASC_NODE":231.4941,"ARG_OF_PERICENTER":85.5695,"MEAN_ANOMALY":274.5457,"EPHEMERIS_TYPE":0,"CLASSIFICATION_TYPE":"U","NORAD_CAT_ID":47793,"ELEMENT_SET_NO":999,"REV_AT_EPOCH":27687,"BSTAR":-2.4795202e-5,"MEAN_MOTION_DOT":-6.51e-6,"MEAN_MOTION_DDOT":0},{"OBJECT_NAME":"PEGASUS DEB","OBJECT_ID":"1994-029AEQ","EPOCH":"2026-03-09T08:40:11.508384","MEAN_MOTION":14.70940867,"ECCENTRICITY":0.01619331,"INCLINATION":81.9633,"RA_OF_ASC_NODE":47.0468,"ARG_OF_PERICENTER":351.1383,"MEAN_ANOMALY":8.6969,"EPHEMERIS_TYPE":0,"CLASSIFICATION_TYPE":"U","NORAD_CAT_ID":29033,"ELEMENT_SET_NO":999,"REV_AT_EPOCH":21443,"BSTAR":0.0030025525,"MEAN_MOTION_DOT":0.00022643,"MEAN_MOTION_DDOT":0}]
